ONEWEB-0683             
1 56719U 23068K   24218.87472016  .00000140  00000+0  33912-3 0  9994
2 56719  87.9029  34.5518 0002012  97.7138 262.4221 13.15549858 60678
ONEWEB-0684             
1 56720U 23068L   24218.19812528  .00000050  00000+0  99596-4 0  9998
2 56720  87.9027  34.7632 0000283  59.5126 300.6032 13.15549668 60414
ONEWEB-0686             
1 56721U 23068M   24218.15892319  .00000067  00000+0  14201-3 0  9998
2 56721  87.9125   4.4126 0001689 100.4991 259.6330 13.16595757 62803
ONEWEB-0694             
1 56722U 23068N   24218.11858081 -.00000012  00000+0 -64134-4 0  9996
2 56722  87.9126   4.3392 0002197 105.0644 255.0730 13.16592942 62852
ONEWEB-0696             
1 56723U 23068P   24218.53562128  .00000033  00000+0  53161-4 0  9996
2 56723  87.9026  34.6700 0001693  82.3331 277.7991 13.15550840 60578
ONEWEB-0703             
1 56724U 23068Q   24218.84937093  .00000042  00000+0  77469-4 0  9995
2 56724  87.9026  34.6281 0001716  48.6109 311.5169 13.15548916 60505
ONEWEB-0721             
1 56725U 23068R   24218.76740468  .00008972  00000+0  10331-2 0  9998
2 56725  86.6801 315.3469 0012789  97.2819 262.9860 14.85565663 66565
